*******************************************************************************
 Revised : Sep 12, 1996                  Sun                                 10
 Physical: Dec 07, 2010

 PHYSICAL PROPERTIES:
  GM (10^11 km^3/s^2)   = 1.32712440018   Mass (10^30 kg)       =    1.9891
  Radius (photosphere)  = 6.960(10^5) km  Angular diam at 1 AU  = 1919.3"
  Mean density          = 1.408 g/cm^3    Surface gravity       =  274.0 m/s^2
  Moment of inertia     = 0.059           Escape velocity       =  617.7 km/s
  Adopted sidereal per  = 25.38 d         Pole (RA,DEC in deg.) =  286.13,63.87
  Obliquity to ecliptic = 7 deg 15'        

  Solar constant (1 AU) = 1367.6 W/m^2    Solar lumin.(erg/s)   =  3.846(10^33)
  Mass-energy conv rate = 4.3(10^12 gm/s) Effective temp (K)    =  5778
  Surf. temp (photosphr)= 6600 K (bottom) Surf. temp (photosphr)=  4400 K (top)
  Photospheric depth    = ~400 km         Chromospheric depth   = ~2500 km
  Sunspot cycle         = 11.4 yr         Cycle 22 sunspot min. =  1991 A.D.

  Motn. rel to nrby strs= apex : RA=271 deg; DEC=+30 deg
                          speed: 19.4 km/s = 0.0112 AU/day
  Motn. rel to 2.73K BB = apex : l=264.7+-0.8; b=48.2+-0.5
                          speed: 369 +-11 km/s
*******************************************************************************
 
 
*******************************************************************************
Ephemeris / WWW_USER Sat May  7 14:20:16 2011  Pasadena, USA     / Horizons    
*******************************************************************************
Target body name: Sun (10)                        {source: DE405}
Center body name: Earth (399)                     {source: DE405}
Center-site name: GEOCENTRIC
*******************************************************************************
Start time      : A.D. 2011-Apr-18 00:00:00.0000 UT      
Stop  time      : A.D. 2020-May-18 00:00:00.0000 UT      
Step-size       : 1440 minutes
*******************************************************************************
Target pole/equ : IAU_SUN                         {East-longitude +}
Target radii    : 696000.0 x 696000.0 x 696000.0 k{Equator, meridian, pole}    
Center geodetic : 0.00000000,0.00000000,0.0000000 {E-lon(deg),Lat(deg),Alt(km)}
Center cylindric: 0.00000000,0.00000000,0.0000000 {E-lon(deg),Dxy(km),Dz(km)}
Center pole/equ : High-precision EOP model        {East-longitude +}
Center radii    : 6378.1 x 6378.1 x 6356.8 km     {Equator, meridian, pole}    
Target primary  : Sun                             {source: DE405+DE406}
Interfering body: MOON (Req= 1737.400) km         {source: DE405}
Deflecting body : Sun, EARTH                      {source: DE405}
Deflecting GMs  : 1.3271E+11, 3.9860E+05 km^3/s^2                              
Atmos refraction: NO (AIRLESS)
RA format       : HMS
Time format     : CAL 
EOP file        : eop.110506.p110728                                           
EOP coverage    : DATA-BASED 1962-JAN-20 TO 2011-MAY-06. PREDICTS-> 2011-JUL-27
Units conversion: 1 AU= 149597870.691 km, c= 299792.458 km/s, 1 day= 86400.0 s 
Table cut-offs 1: Elevation (-90.0deg=NO ),Airmass (>38.000=NO), Daylight (NO )
Table cut-offs 2: Solar Elongation (  0.0,180.0=NO )                           
*************************************************************************************************
 Date__(UT)__HR:MN     R.A._(ICRF/J2000.0)_DEC R.A.__(a-apparent)__DEC  APmag  S-brt   Illu% Cnst
*************************************************************************************************
$$SOE
 2017-Apr-02 00:00     00 44 54.78 +04 49 28.2 00 45 46.44 +04 54 54.1 -26.74 -10.59 100.000  Psc
 2017-Apr-03 00:00     00 48 33.63 +05 12 31.2 00 49 25.36 +05 17 56.0 -26.74 -10.59 100.000  Psc
 2017-Apr-04 00:00     00 52 12.60 +05 35 28.5 00 53 04.42 +05 40 52.2 -26.74 -10.59 100.000  Psc
 2017-Apr-05 00:00     00 55 51.72 +05 58 20.0 00 56 43.62 +06 03 42.3 -26.74 -10.59 100.000  Psc
 2017-Apr-06 00:00     00 59 30.99 +06 21 05.1 01 00 22.98 +06 26 26.0 -26.74 -10.59 100.000  Psc
 2017-Apr-07 00:00     01 03 10.44 +06 43 43.5 01 04 02.52 +06 49 03.0 -26.74 -10.59 100.000  Psc
 2017-Apr-08 00:00     01 06 50.10 +07 06 15.0 01 07 42.26 +07 11 32.9 -26.74 -10.59 100.000  Psc
 2017-Apr-09 00:00     01 10 29.97 +07 28 39.2 01 11 22.23 +07 33 55.4 -26.74 -10.59 100.000  Psc
 2017-Apr-10 00:00     01 14 10.09 +07 50 55.8 01 15 02.44 +07 56 10.1 -26.74 -10.59 100.000  Psc
 2017-Apr-11 00:00     01 17 50.48 +08 13 04.4 01 18 42.92 +08 18 16.9 -26.74 -10.59 100.000  Psc
 2017-Apr-12 00:00     01 21 31.14 +08 35 04.7 01 22 23.69 +08 40 15.2 -26.74 -10.59 100.000  Psc
 2017-Apr-13 00:00     01 25 12.11 +08 56 56.4 01 26 04.77 +09 02 04.9 -26.74 -10.59 100.000  Psc
 2017-Apr-14 00:00     01 28 53.40 +09 18 39.2 01 29 46.18 +09 23 45.6 -26.74 -10.59 100.000  Psc
 2017-Apr-15 00:00     01 32 35.04 +09 40 12.8 01 33 27.94 +09 45 17.0 -26.74 -10.59 100.000  Psc
 2017-Apr-16 00:00     01 36 17.03 +10 01 36.7 01 37 10.06 +10 06 38.7 -26.73 -10.59 100.000  Psc
 2017-Apr-17 00:00     01 39 59.40 +10 22 50.8 01 40 52.56 +10 27 50.5 -26.73 -10.59 100.000  Psc
 2017-Apr-18 00:00     01 43 42.16 +10 43 54.7 01 44 35.46 +10 48 51.9 -26.73 -10.59 100.000  Psc
 2017-Apr-19 00:00     01 47 25.34 +11 04 48.0 01 48 18.77 +11 09 42.8 -26.73 -10.59 100.000  Ari
 2017-Apr-20 00:00     01 51 08.94 +11 25 30.4 01 52 02.51 +11 30 22.6 -26.73 -10.59 100.000  Ari
 2017-Apr-21 00:00     01 54 52.97 +11 46 01.7 01 55 46.68 +11 50 51.2 -26.73 -10.59 100.000  Ari
 2017-Apr-22 00:00     01 58 37.46 +12 06 21.4 01 59 31.31 +12 11 08.2 -26.73 -10.59 100.000  Ari
 2017-Apr-23 00:00     02 02 22.41 +12 26 29.3 02 03 16.40 +12 31 13.2 -26.73 -10.59 100.000  Ari
 2017-Apr-24 00:00     02 06 07.83 +12 46 24.9 02 07 01.97 +12 51 05.9 -26.73 -10.59 100.000  Ari
 2017-Apr-25 00:00     02 09 53.73 +13 06 08.0 02 10 48.01 +13 10 46.0 -26.73 -10.59 100.000  Ari
 2017-Apr-26 00:00     02 13 40.12 +13 25 38.3 02 14 34.55 +13 30 13.1 -26.73 -10.59 100.000  Ari
 2017-Apr-27 00:00     02 17 27.00 +13 44 55.3 02 18 21.59 +13 49 26.9 -26.73 -10.59 100.000  Ari
 2017-Apr-28 00:00     02 21 14.38 +14 03 58.7 02 22 09.14 +14 08 27.1 -26.73 -10.59 100.000  Ari
 2017-Apr-29 00:00     02 25 02.26 +14 22 48.2 02 25 57.19 +14 27 13.3 -26.73 -10.59 100.000  Ari
 2017-Apr-30 00:00     02 28 50.65 +14 41 23.5 02 29 45.74 +14 45 45.2 -26.73 -10.59 100.000  Ari
 2017-May-01 00:00     02 32 39.55 +14 59 44.1 02 33 34.82 +15 04 02.4 -26.73 -10.59 100.000  Ari
 2017-May-02 00:00     02 36 28.96 +15 17 49.9 02 37 24.40 +15 22 04.5 -26.73 -10.59 100.000  Ari
 2017-May-03 00:00     02 40 18.90 +15 35 40.3 02 41 14.51 +15 39 51.4 -26.72 -10.59 100.000  Ari
 2017-May-04 00:00     02 44 09.36 +15 53 15.2 02 45 05.14 +15 57 22.5 -26.72 -10.59 100.000  Ari
 2017-May-05 00:00     02 48 00.36 +16 10 34.2 02 48 56.31 +16 14 37.7 -26.72 -10.59 100.000  Ari
 2017-May-06 00:00     02 51 51.90 +16 27 37.0 02 52 48.02 +16 31 36.6 -26.72 -10.59 100.000  Ari
 2017-May-07 00:00     02 55 43.99 +16 44 23.3 02 56 40.27 +16 48 18.9 -26.72 -10.59 100.000  Ari
 2017-May-08 00:00     02 59 36.62 +17 00 52.8 03 00 33.08 +17 04 44.4 -26.72 -10.59 100.000  Ari
 2017-May-09 00:00     03 03 29.82 +17 17 05.3 03 04 26.44 +17 20 52.6 -26.72 -10.59 100.000  Ari
 2017-May-10 00:00     03 07 23.59 +17 33 00.3 03 08 20.38 +17 36 43.5 -26.72 -10.59 100.000  Ari
 2017-May-11 00:00     03 11 17.92 +17 48 37.8 03 12 14.88 +17 52 16.6 -26.72 -10.59 100.000  Ari
 2017-May-12 00:00     03 15 12.83 +18 03 57.3 03 16 09.97 +18 07 31.7 -26.72 -10.59 100.000  Ari
 2017-May-13 00:00     03 19 08.31 +18 18 58.5 03 20 05.62 +18 22 28.6 -26.72 -10.59 100.000  Ari
 2017-May-14 00:00     03 23 04.37 +18 33 41.4 03 24 01.86 +18 37 06.9 -26.72 -10.59 100.000  Ari
 2017-May-15 00:00     03 27 01.01 +18 48 05.4 03 27 58.68 +18 51 26.4 -26.72 -10.59 100.000  Tau
 2017-May-16 00:00     03 30 58.23 +19 02 10.4 03 31 56.07 +19 05 26.8 -26.72 -10.59 100.000  Tau
 2017-May-17 00:00     03 34 56.03 +19 15 56.2 03 35 54.05 +19 19 07.8 -26.72 -10.59 100.000  Tau
 2017-May-18 00:00     03 38 54.41 +19 29 22.4 03 39 52.59 +19 32 29.2 -26.72 -10.59 100.000  Tau
 2017-May-19 00:00     03 42 53.36 +19 42 28.8 03 43 51.71 +19 45 30.8 -26.72 -10.59 100.000  Tau
 2017-May-20 00:00     03 46 52.88 +19 55 15.1 03 47 51.39 +19 58 12.2 -26.72 -10.59 100.000  Tau
 2017-May-21 00:00     03 50 52.96 +20 07 41.1 03 51 51.62 +20 10 33.2 -26.72 -10.59 100.000  Tau
 2017-May-22 00:00     03 54 53.59 +20 19 46.5 03 55 52.41 +20 22 33.5 -26.72 -10.59 100.000  Tau
 2017-May-23 00:00     03 58 54.77 +20 31 31.1 03 59 53.75 +20 34 12.9 -26.72 -10.59 100.000  Tau
 2017-May-24 00:00     04 02 56.49 +20 42 54.6 04 03 55.61 +20 45 31.2 -26.71 -10.59 100.000  Tau
 2017-May-25 00:00     04 06 58.72 +20 53 56.8 04 07 57.99 +20 56 28.1 -26.71 -10.59 100.000  Tau
 2017-May-26 00:00     04 11 01.45 +21 04 37.4 04 12 00.88 +21 07 03.4 -26.71 -10.59 100.000  Tau
 2017-May-27 00:00     04 15 04.67 +21 14 56.3 04 16 04.25 +21 17 16.9 -26.71 -10.59 100.000  Tau
 2017-May-28 00:00     04 19 08.35 +21 24 53.1 04 20 08.09 +21 27 08.3 -26.71 -10.59 100.000  Tau
 2017-May-29 00:00     04 23 12.48 +21 34 27.6 04 24 12.37 +21 36 37.4 -26.71 -10.59 100.000  Tau
 2017-May-30 00:00     04 27 17.05 +21 43 39.7 04 28 17.07 +21 45 44.0 -26.71 -10.59 100.000  Tau
 2017-May-31 00:00     04 31 22.03 +21 52 29.1 04 32 22.18 +21 54 27.8 -26.71 -10.59 100.000  Tau
 2017-Jun-01 00:00     04 35 27.40 +22 00 55.6 04 36 27.68 +22 02 48.7 -26.71 -10.59 100.000  Tau
 2017-Jun-02 00:00     04 39 33.16 +22 08 59.1 04 40 33.56 +22 10 46.5 -26.71 -10.59 100.000  Tau
 2017-Jun-03 00:00     04 43 39.28 +22 16 39.3 04 44 39.79 +22 18 21.0 -26.71 -10.59 100.000  Tau
 2017-Jun-04 00:00     04 47 45.75 +22 23 56.1 04 48 46.37 +22 25 32.1 -26.71 -10.59 100.000  Tau
